NORAD_CAT_ID,OBJECT_NAME,OBJECT_TYPE,EPOCH,MEAN_MOTION,ECCENTRICITY,INCLINATION,RA_OF_ASC_NODE,ARG_OF_PERICENTER,MEAN_ANOMALY,BSTAR,MEAN_MOTION_DOT,MEAN_MOTION_DDOT,TLE_LINE0,TLE_LINE1,TLE_LINE2,SEMIMAJOR_AXIS,PERIOD,APOGEE,PERIGEE,DECAYED
55938.0,STARLINK-5909,PAYLOAD,2023-11-03 22:02:36,14.98327519,0.0002533,70.0006,284.6984,264.2556,95.8314,1.0341e-05,3e-07,0.0,0 STARLINK-5909,1 55938U 23037AA  23307.91847571  .00000030  00000-0  10341-4 0  9998,2 55938  70.0006 284.6984 0002533 264.2556  95.8314 14.98327519 35646,6950.201,96.107,573.826,570.305,0.0
55938.0,STARLINK-5909,PAYLOAD,2023-11-04 07:39:24,14.98334028,0.0002705,69.999,283.6869,267.9006,92.1843,-1.1756e-05,-2.33e-06,0.0,0 STARLINK-5909,1 55938U 23037AA  23308.31903231 -.00000233  00000-0 -11756-4 0  9997,2 55938  69.9990 283.6869 0002705 267.9006  92.1843 14.98334028 36042,6950.18,96.107,573.925,570.165,0.0
55938.0,STARLINK-5909,PAYLOAD,2023-11-04 14:03:56,14.98332095,0.0002728,69.9993,283.0132,274.5829,85.5018,-6.6147e-05,-8.82e-06,0.0,0 STARLINK-5909,1 55938U 23037AA  23308.58607479 -.00000882  00000-0 -66147-4 0  9995,2 55938  69.9993 283.0132 0002728 274.5829  85.5018 14.98332095 35742,6950.186,96.107,573.947,570.155,0.0
55938.0,STARLINK-5909,PAYLOAD,2023-11-05 07:41:25,14.98334177,0.0002554,69.9996,281.1615,265.6064,94.4804,0.00010046,1.106e-05,0.0,0 STARLINK-5909,1 55938U 23037AA  23309.32042933  .00001106  00000-0  10046-3 0  9990,2 55938  69.9996 281.1615 0002554 265.6064  94.4804 14.98334177 36194,6950.18,96.107,573.82,570.27,0.0
55938.0,STARLINK-5909,PAYLOAD,2023-11-05 15:42:05,14.98333122,0.0002686,70.0001,280.32,269.7799,90.3052,1.7087e-05,1.11e-06,0.0,0 STARLINK-5909,1 55938U 23037AA  23309.65423127  .00000111  00000-0  17087-4 0  9992,2 55938  70.0001 280.3200 0002686 269.7799  90.3052 14.98333122 35908,6950.183,96.107,573.915,570.181,0.0
55938.0,STARLINK-5909,PAYLOAD,2023-11-06 04:31:08,14.98344988,0.0002931,69.9986,278.9736,269.5412,90.5411,0.00018812,2.153e-05,0.0,0 STARLINK-5909,1 55938U 23037AA  23310.18829716  .00002153  00000-0  18812-3 0  9990,2 55938  69.9986 278.9736 0002931 269.5412  90.5411 14.98344988 36327,6950.147,96.106,574.049,569.974,0.0
55938.0,STARLINK-5909,PAYLOAD,2023-11-06 07:43:24,14.98346687,0.0002845,69.9991,278.6375,269.7932,90.2902,0.00021236,2.443e-05,0.0,0 STARLINK-5909,1 55938U 23037AA  23310.32181440  .00002443  00000-0  21236-3 0  9997,2 55938  69.9991 278.6375 0002845 269.7932  90.2902 14.98346687 36007,6950.141,96.106,573.984,570.029,0.0
55938.0,STARLINK-5909,PAYLOAD,2023-11-06 15:44:06,14.98331703,0.0002393,70.0002,277.7953,283.7192,76.3701,-3.517e-06,-1.35e-06,0.0,0 STARLINK-5909,1 55938U 23037AA  23310.65562988 -.00000135  00000-0 -35170-5 0  9995,2 55938  70.0002 277.7953 0002393 283.7192  76.3701 14.98331703 36394,6950.188,96.107,573.716,570.389,0.0
55938.0,STARLINK-5909,PAYLOAD,2023-11-06 22:08:38,14.9832769,0.0002535,69.9988,277.1227,278.4524,81.6347,5.2692e-05,5.36e-06,0.0,0 STARLINK-5909,1 55938U 23037AA  23310.92267014  .00000536  00000-0  52692-4 0  9997,2 55938  69.9988 277.1227 0002535 278.4524  81.6347 14.98327690 36092,6950.2,96.107,573.827,570.303,0.0
55938.0,STARLINK-5909,PAYLOAD,2023-11-07 07:45:26,14.98333736,0.000263,69.9994,276.1123,275.8565,84.2295,-5.1373e-08,-9.4e-07,0.0,0 STARLINK-5909,1 55938U 23037AA  23311.32322712 -.00000094  00000-0 -51373-7 0  9998,2 55938  69.9994 276.1123 0002630 275.8565  84.2295 14.98333736 36151,6950.181,96.107,573.874,570.218,0.0
55938.0,STARLINK-5909,PAYLOAD,2023-11-08 04:35:12,14.98330171,0.0002131,70.0003,273.9245,264.9456,95.146,-9.9471e-05,-1.279e-05,0.0,0 STARLINK-5909,1 55938U 23037AA  23312.19111351 -.00001279  00000-0 -99471-4 0  9993,2 55938  70.0003 273.9245 0002131 264.9456  95.1460 14.98330171 36626,6950.192,96.107,573.538,570.576,0.0
55938.0,STARLINK-5909,PAYLOAD,2023-11-08 07:47:28,14.98327585,0.0002387,70.0003,273.5898,263.4942,96.5946,-0.00022366,-2.76e-05,0.0,0 STARLINK-5909,1 55938U 23037AA  23312.32463893 -.00002760  00000-0 -22366-3 0  9993,2 55938  70.0003 273.5898 0002387 263.4942  96.5946 14.98327585 36307,6950.2,96.107,573.724,570.406,0.0
55938.0,STARLINK-5909,PAYLOAD,2023-11-08 22:12:41,14.98324513,0.0002669,69.9996,272.073,280.8776,79.2082,2.8285e-05,2.44e-06,0.0,0 STARLINK-5909,1 55938U 23037AA  23312.92547545  .00000244  00000-0  28285-4 0  9996,2 55938  69.9996 272.0730 0002669 280.8776  79.2082 14.98324513 36391,6950.21,96.107,573.93,570.22,0.0
55938.0,STARLINK-5909,PAYLOAD,2023-11-09 07:49:28,14.98332201,0.0002591,69.9996,271.0633,277.4641,82.6224,0.00010095,1.112e-05,0.0,0 STARLINK-5909,1 55938U 23037AA  23313.32602921  .00001112  00000-0  10095-3 0  9995,2 55938  69.9996 271.0633 0002591 277.4641  82.6224 14.98332201 36792,6950.186,96.107,573.852,570.25,0.0
55938.0,STARLINK-5909,PAYLOAD,2023-11-09 22:14:41,14.98315486,0.0002758,70.0002,269.5485,273.4053,86.679,0.00051265,6.027e-05,0.0,0 STARLINK-5909,1 55938U 23037AA  23313.92686719  .00006027  00000-0  51265-3 0  9992,2 55938  70.0002 269.5485 0002758 273.4053  86.6790 14.98315486 36549,6950.238,96.108,574.02,570.186,0.0
55938.0,STARLINK-5909,PAYLOAD,2023-11-10 07:51:30,14.98328143,0.0002356,69.9998,268.538,265.1041,94.9849,0.00013945,1.571e-05,0.0,0 STARLINK-5909,1 55938U 23037AA  23314.32743142  .00001571  00000-0  13945-3 0  9993,2 55938  69.9998 268.5380 0002356 265.1041  94.9849 14.98328143 36947,6950.199,96.107,573.701,570.426,0.0
55938.0,STARLINK-5909,PAYLOAD,2023-11-10 14:16:02,14.98323316,0.000247,70.0,267.8649,275.4608,84.6269,6.4771e-05,6.8e-06,0.0,0 STARLINK-5909,1 55938U 23037AA  23314.59447792  .00000680  00000-0  64771-4 0  9998,2 55938  70.0000 267.8649 0002470 275.4608  84.6269 14.98323316 36987,6950.214,96.107,573.795,570.362,0.0
55938.0,STARLINK-5909,PAYLOAD,2023-11-10 22:16:43,14.98299106,0.0002833,70.0001,267.0206,275.0047,85.0788,0.00042817,5.015e-05,0.0,0 STARLINK-5909,1 55938U 23037AA  23314.92827738  .00005015  00000-0  42817-3 0  9990,2 55938  70.0001 267.0206 0002833 275.0047  85.0788 14.98299106 36693,6950.288,96.109,574.122,570.184,0.0
55938.0,STARLINK-5909,PAYLOAD,2023-11-11 06:17:22,14.9833252,0.0002765,69.9987,266.181,263.326,96.7584,3.8762e-06,-4.7e-07,0.0,0 STARLINK-5909,1 55938U 23037AA  23315.26207173 -.00000047  00000-0  38762-5 0  9990,2 55938  69.9987 266.1810 0002765 263.3260  96.7584 14.98332520 37080,6950.185,96.107,573.972,570.128,0.0
55938.0,STARLINK-5909,PAYLOAD,2023-11-11 14:18:03,14.98332319,0.0002749,69.9993,265.3392,271.5345,88.55,-9.411e-05,-1.216e-05,0.0,0 STARLINK-5909,1 55938U 23037AA  23315.59587444 -.00001216  00000-0 -94110-4 0  9996,2 55938  69.9993 265.3392 0002749 271.5345  88.5500 14.98332319 36790,6950.186,96.107,573.961,570.14,0.0
55938.0,STARLINK-5909,PAYLOAD,2023-11-11 22:18:43,14.983275,0.0002745,69.9991,264.4973,265.557,94.5276,-2.3114e-05,-3.69e-06,0.0,0 STARLINK-5909,1 55938U 23037AA  23315.92967546 -.00000369  00000-0 -23114-4 0  9992,2 55938  69.9991 264.4973 0002745 265.5570  94.5276 14.98327500 36841,6950.201,96.107,573.973,570.158,0.0
55938.0,STARLINK-5909,PAYLOAD,2023-11-12 06:19:23,14.98333502,0.0002868,69.9993,263.6558,269.1267,90.9564,5.0645e-05,5.11e-06,0.0,0 STARLINK-5909,1 55938U 23037AA  23316.26346949  .00000511  00000-0  50645-4 0  9994,2 55938  69.9993 263.6558 0002868 269.1267  90.9564 14.98333502 37235,6950.182,96.107,574.04,570.054,0.0
55938.0,STARLINK-5909,PAYLOAD,2023-11-12 22:20:44,14.98328478,0.0002709,69.9996,261.9731,267.8565,92.2284,5.5958e-05,5.75e-06,0.0,0 STARLINK-5909,1 55938U 23037AA  23316.93107176  .00000575  00000-0  55958-4 0  9997,2 55938  69.9996 261.9731 0002709 267.8565  92.2284 14.98328478 36994,6950.198,96.107,573.945,570.18,0.0
55938.0,STARLINK-5909,PAYLOAD,2023-11-13 06:21:24,14.98332547,0.0002542,69.9997,261.1328,261.2163,98.8708,8.1603e-05,8.81e-06,0.0,0 STARLINK-5909,1 55938U 23037AA  23317.26486836  .00000881  00000-0  81603-4 0  9993,2 55938  69.9997 261.1328 0002542 261.2163  98.8708 14.98332547 37385,6950.185,96.107,573.817,570.283,0.0
55938.0,STARLINK-5909,PAYLOAD,2023-11-14 06:23:25,14.98334189,0.0002881,69.9993,258.6061,265.2667,94.8163,6.6339e-05,6.99e-06,0.0,0 STARLINK-5909,1 55938U 23037AA  23318.26626683  .00000699  00000-0  66339-4 0  9996,2 55938  69.9993 258.6061 0002881 265.2667  94.8163 14.98334189 37537,6950.18,96.107,574.047,570.043,0.0
55938.0,STARLINK-5909,PAYLOAD,2023-11-15 06:25:26,14.98329873,0.000288,70.0011,256.0811,264.5873,95.4958,3.9399e-05,3.77e-06,0.0,0 STARLINK-5909,1 55938U 23037AA  23319.26766850  .00000377  00000-0  39399-4 0  9997,2 55938  70.0011 256.0811 0002880 264.5873  95.4958 14.98329873 37685,6950.193,96.107,574.06,570.057,0.0
55938.0,STARLINK-5909,PAYLOAD,2023-11-15 19:14:31,14.98322651,0.000239,70.002,254.7345,274.664,85.4246,0.00011839,1.32e-05,0.0,0 STARLINK-5909,1 55938U 23037AA  23319.80175086  .00001320  00000-0  11839-3 0  9999,2 55938  70.0020 254.7345 0002390 274.6640  85.4246 14.98322651 37420,6950.216,96.107,573.742,570.42,0.0
55938.0,STARLINK-5909,PAYLOAD,2023-11-16 01:39:01,14.98354139,0.0001276,70.002,254.0597,265.6356,94.4657,0.00044904,5.272e-05,0.0,0 STARLINK-5909,1 55938U 23037AA  23320.06876458  .00005272  00000-0  44904-3 0  9999,2 55938  70.0020 254.0597 0001276 265.6356  94.4657 14.98354139 37802,6950.118,96.105,572.87,571.096,0.0
55938.0,STARLINK-5909,PAYLOAD,2023-11-16 04:51:20,14.98319506,0.0002126,70.0025,253.7238,274.8284,85.2632,6.8116e-05,7.2e-06,0.0,0 STARLINK-5909,1 55938U 23037AA  23320.20231545  .00000720  00000-0  68116-4 0  9992,2 55938  70.0025 253.7238 0002126 274.8284  85.2632 14.98319506 37824,6950.225,96.108,573.568,570.613,0.0
55938.0,STARLINK-5909,PAYLOAD,2023-11-17 04:53:20,14.98316154,0.0002269,70.0009,251.2015,275.9024,84.1877,0.00015938,1.809e-05,0.0,0 STARLINK-5909,1 55938U 23037AA  23321.20371494  .00001809  00000-0  15938-3 0  9993,2 55938  70.0009 251.2015 0002269 275.9024  84.1877 14.98316154 37975,6950.236,96.108,573.678,570.524,0.0
